{
  "type": "FeatureCollection",
  "features": [
    {
      "type": "Feature",
      "properties": {
        "norad_id": 39227,
        "name": "ARIRANG-5 (KOMPSAT-5)",
        "group": "resource",
        "lat": -43.155707598609894,
        "lon": -7.85891310391625,
        "alt_km": 561.9661559592214,
        "timestamp": "2025-12-21T03:56:50.511580+00:00",
        "meta_object_name": "ARIRANG-5 (KOMPSAT-5)",
        "meta_object_id": "2013-042A",
        "meta_epoch": "2025-12-20T20:34:19.792992",
        "meta_mean_motion": 15.0454115,
        "meta_eccentricity": 0.0003436,
        "meta_inclination": 97.6154,
        "meta_ra_of_asc_node": 179.0448,
        "meta_arg_of_pericenter": 36.3447,
        "meta_mean_anomaly": 323.8012,
        "meta_ephemeris_type": 0,
        "meta_classification_type": "U",
        "meta_norad_cat_id": 39227,
        "meta_element_set_no": 999,
        "meta_rev_at_epoch": 67704,
        "meta_bstar": 0.00015897,
        "meta_mean_motion_dot": 2.167e-05,
        "meta_mean_motion_ddot": 0,
        "tle_line1": "1 39227U 13042A   25354.85717353  .00002167  00000+0  15897-3 0  9999",
        "tle_line2": "2 39227  97.6154 179.0448 0003436  36.3447 323.8012 15.04541150677042"
      },
      "geometry": {
        "type": "Point",
        "coordinates": [
          -7.85891310391625,
          -43.155707598609894
        ]
      }
    },
    {
      "type": "Feature",
      "properties": {
        "norad_id": 39418,
        "name": "SKYSAT-A",
        "group": "resource",
        "lat": 82.42223184062597,
        "lon": -56.8596628378999,
        "alt_km": 529.7606879248424,
        "timestamp": "2025-12-21T03:56:50.511590+00:00",
        "meta_object_name": "SKYSAT-A",
        "meta_object_id": "2013-066C",
        "meta_epoch": "2025-12-20T16:25:18.026688",
        "meta_mean_motion": 15.11656682,
        "meta_eccentricity": 0.0021318,
        "meta_inclination": 97.4096,
        "meta_ra_of_asc_node": 44.6513,
        "meta_arg_of_pericenter": 207.7312,
        "meta_mean_anomaly": 152.2784,
        "meta_ephemeris_type": 0,
        "meta_classification_type": "U",
        "meta_norad_cat_id": 39418,
        "meta_element_set_no": 999,
        "meta_rev_at_epoch": 66150,
        "meta_bstar": 0.00016126,
        "meta_mean_motion_dot": 2.693e-05,
        "meta_mean_motion_ddot": 0,
        "tle_line1": "1 39418U 13066C   25354.68423642  .00002693  00000+0  16126-3 0  9993",
        "tle_line2": "2 39418  97.4096  44.6513 0021318 207.7312 152.2784 15.11656682661500"
      },
      "geometry": {
        "type": "Point",
        "coordinates": [
          -56.8596628378999,
          82.42223184062597
        ]
      }
    },
    {
      "type": "Feature",
      "properties": {
        "norad_id": 39419,
        "name": "DUBAISAT-2",
        "group": "resource",
        "lat": 43.6099507025614,
        "lon": 172.46700892191686,
        "alt_km": 543.5623835031029,
        "timestamp": "2025-12-21T03:56:50.511599+00:00",
        "meta_object_name": "DUBAISAT-2",
        "meta_object_id": "2013-066D",
        "meta_epoch": "2025-12-20T20:58:41.430432",
        "meta_mean_motion": 15.08425114,
        "meta_eccentricity": 0.0010005,
        "meta_inclination": 97.4442,
        "meta_ra_of_asc_node": 345.0304,
        "meta_arg_of_pericenter": 289.5931,
        "meta_mean_anomaly": 70.4217,
        "meta_ephemeris_type": 0,
        "meta_classification_type": "U",
        "meta_norad_cat_id": 39419,
        "meta_element_set_no": 999,
        "meta_rev_at_epoch": 65949,
        "meta_bstar": 0.00021257,
        "meta_mean_motion_dot": 3.25e-05,
        "meta_mean_motion_ddot": 0,
        "tle_line1": "1 39419U 13066D   25354.87409063  .00003250  00000+0  21257-3 0  9997",
        "tle_line2": "2 39419  97.4442 345.0304 0010005 289.5931  70.4217 15.08425114659495"
      },
      "geometry": {
        "type": "Point",
        "coordinates": [
          172.46700892191686,
          43.6099507025614
        ]
      }
    },
    {
      "type": "Feature",
      "properties": {
        "norad_id": 39574,
        "name": "GPM-CORE",
        "group": "resource",
        "lat": -41.643186144050894,
        "lon": 159.92117241441719,
        "alt_km": 435.4935000208243,
        "timestamp": "2025-12-21T03:56:50.511609+00:00",
        "meta_object_name": "GPM-CORE",
        "meta_object_id": "2014-009C",
        "meta_epoch": "2025-12-20T18:49:38.970912",
        "meta_mean_motion": 15.44578492,
        "meta_eccentricity": 0.0009345,
        "meta_inclination": 64.9718,
        "meta_ra_of_asc_node": 185.7418,
        "meta_arg_of_pericenter": 248.4116,
        "meta_mean_anomaly": 111.6029,
        "meta_ephemeris_type": 0,
        "meta_classification_type": "U",
        "meta_norad_cat_id": 39574,
        "meta_element_set_no": 999,
        "meta_rev_at_epoch": 67025,
        "meta_bstar": 0.00011961,
        "meta_mean_motion_dot": 5.343e-05,
        "meta_mean_motion_ddot": 0,
        "tle_line1": "1 39574U 14009C   25354.78447883  .00005343  00000+0  11961-3 0  9995",
        "tle_line2": "2 39574  64.9718 185.7418 0009345 248.4116 111.6029 15.44578492670255"
      },
      "geometry": {
        "type": "Point",
        "coordinates": [
          159.92117241441719,
          -41.643186144050894
        ]
      }
    },
    {
      "type": "Feature",
      "properties": {
        "norad_id": 39634,
        "name": "SENTINEL-1A",
        "group": "resource",
        "lat": 71.93410891866104,
        "lon": -25.882729208772222,
        "alt_km": 687.9334390110898,
        "timestamp": "2025-12-21T03:56:50.511618+00:00",
        "meta_object_name": "SENTINEL-1A",
        "meta_object_id": "2014-016A",
        "meta_epoch": "2025-12-20T21:01:38.741376",
        "meta_mean_motion": 14.59200275,
        "meta_eccentricity": 0.0001279,
        "meta_inclination": 98.1795,
        "meta_ra_of_asc_node": 359.9973,
        "meta_arg_of_pericenter": 86.2996,
        "meta_mean_anomaly": 273.835,
        "meta_ephemeris_type": 0,
        "meta_classification_type": "U",
        "meta_norad_cat_id": 39634,
        "meta_element_set_no": 999,
        "meta_rev_at_epoch": 62401,
        "meta_bstar": 9.5496e-06,
        "meta_mean_motion_dot": -1e-08,
        "meta_mean_motion_ddot": 0,
        "tle_line1": "1 39634U 14016A   25354.87614284 -.00000001  00000+0  95496-5 0  9995",
        "tle_line2": "2 39634  98.1795 359.9973 0001279  86.2996 273.8350 14.59200275624016"
      },
      "geometry": {
        "type": "Point",
        "coordinates": [
          -25.882729208772222,
          71.93410891866104
        ]
      }
    },
    {
      "type": "Feature",
      "properties": {
        "norad_id": 39731,
        "name": "KAZEOSAT 1",
        "group": "resource",
        "lat": -67.98837004562124,
        "lon": -134.40187038323995,
        "alt_km": 759.6761778132113,
        "timestamp": "2025-12-21T03:56:50.511627+00:00",
        "meta_object_name": "KAZEOSAT 1",
        "meta_object_id": "2014-024A",
        "meta_epoch": "2025-12-20T20:07:58.236672",
        "meta_mean_motion": 14.42066082,
        "meta_eccentricity": 0.0001179,
        "meta_inclination": 98.3432,
        "meta_ra_of_asc_node": 66.5648,
        "meta_arg_of_pericenter": 97.1952,
        "meta_mean_anomaly": 262.9372,
        "meta_ephemeris_type": 0,
        "meta_classification_type": "U",
        "meta_norad_cat_id": 39731,
        "meta_element_set_no": 999,
        "meta_rev_at_epoch": 61285,
        "meta_bstar": 6.3351e-06,
        "meta_mean_motion_dot": -2.2e-07,
        "meta_mean_motion_ddot": 0,
        "tle_line1": "1 39731U 14024A   25354.83886848 -.00000022  00000+0  63351-5 0  9993",
        "tle_line2": "2 39731  98.3432  66.5648 0001179  97.1952 262.9372 14.42066082612856"
      },
      "geometry": {
        "type": "Point",
        "coordinates": [
          -134.40187038323995,
          -67.98837004562124
        ]
      }
    },
    {
      "type": "Feature",
      "properties": {
        "norad_id": 39766,
        "name": "ALOS-2",
        "group": "resource",
        "lat": -6.240654434907918,
        "lon": -90.98171060296674,
        "alt_km": 634.8065428789678,
        "timestamp": "2025-12-21T03:56:50.511637+00:00",
        "meta_object_name": "ALOS-2",
        "meta_object_id": "2014-029A",
        "meta_epoch": "2025-12-20T20:36:57.067776",
        "meta_mean_motion": 14.7947194,
        "meta_eccentricity": 0.0001413,
        "meta_inclination": 97.9232,
        "meta_ra_of_asc_node": 89.5898,
        "meta_arg_of_pericenter": 95.8837,
        "meta_mean_anomaly": 264.2536,
        "meta_ephemeris_type": 0,
        "meta_classification_type": "U",
        "meta_norad_cat_id": 39766,
        "meta_element_set_no": 999,
        "meta_rev_at_epoch": 62521,
        "meta_bstar": 0.0002303,
        "meta_mean_motion_dot": 1.669e-05,
        "meta_mean_motion_ddot": 0,
        "tle_line1": "1 39766U 14029A   25354.85899384  .00001669  00000+0  23030-3 0  9992",
        "tle_line2": "2 39766  97.9232  89.5898 0001413  95.8837 264.2536 14.79471940625211"
      },
      "geometry": {
        "type": "Point",
        "coordinates": [
          -90.98171060296674,
          -6.240654434907918
        ]
      }
    }
  ]
}